{"type": "FeatureCollection", "features": [ {"type": "Feature", "properties": {"norad_id": 67143, "name": "KUIPER-00191", "group": "last-30-days", "lat": -4.724395234201641, "lon": -123.63172804889531, "alt_km": 458.5451250163769, "timestamp": "2025-12-27T18:38:02.207836+00:00", "meta": {"OBJECT_NAME": "KUIPER-00191", "OBJECT_ID": "2025-301L", "EPOCH": "2025-12-27T10:00:59.834016", "MEAN_MOTION": 15.35220963, "ECCENTRICITY": 0.0006689, "INCLINATION": 51.868, "RA_OF_ASC_NODE": 54.3774, "ARG_OF_PERICENTER": 136.0185, "MEAN_ANOMALY": 224.1334, "EPHEMERIS_TYPE": 0, "CLASSIFICATION_TYPE": "U", "NORAD_CAT_ID": 67143, "ELEMENT_SET_NO": 999, "REV_AT_EPOCH": 265, "BSTAR": 0.00067619, "MEAN_MOTION_DOT": 0.00023178, "MEAN_MOTION_DDOT": 0}, "tle": {"line1": "1 67143U 25301L   25361.41735919  .00023178  00000+0  67619-3 0  9990", "line2": "2 67143  51.8680  54.3774 0006689 136.0185 224.1334 15.35220963  2652"}}, "geometry": {"type": "Point", "coordinates": [-123.63172804889531, -4.724395234201641]}}, {"type": "Feature", "properties": {"norad_id": 67144, "name": "KUIPER-00196", "group": "last-30-days", "lat": -32.23047098612953, "lon": -97.75086414221417, "alt_km": 462.74474075342096, "timestamp": "2025-12-27T18:38:02.207846+00:00", "meta": {"OBJECT_NAME": "KUIPER-00196", "OBJECT_ID": "2025-301M", "EPOCH": "2025-12-27T09:51:42.495264", "MEAN_MOTION": 15.36040506, "ECCENTRICITY": 0.0003836, "INCLINATION": 51.8736, "RA_OF_ASC_NODE": 54.3323, "ARG_OF_PERICENTER": 107.5905, "MEAN_ANOMALY": 252.5501, "EPHEMERIS_TYPE": 0, "CLASSIFICATION_TYPE": "U", "NORAD_CAT_ID": 67144, "ELEMENT_SET_NO": 999, "REV_AT_EPOCH": 262, "BSTAR": -0.00026276, "MEAN_MOTION_DOT": -9.741e-05, "MEAN_MOTION_DDOT": 0}, "tle": {"line1": "1 67144U 25301M   25361.41090851 -.00009741  00000+0 -26276-3 0  9996", "line2": "2 67144  51.8736  54.3323 0003836 107.5905 252.5501 15.36040506  2621"}}, "geometry": {"type": "Point", "coordinates": [-97.75086414221417, -32.23047098612953]}}, {"type": "Feature", "properties": {"norad_id": 67145, "name": "KUIPER-00204", "group": "last-30-days", "lat": -44.93820058571692, "lon": -75.88460915143506, "alt_km": 461.95426316750854, "timestamp": "2025-12-27T18:38:02.207859+00:00", "meta": {"OBJECT_NAME": "KUIPER-00204", "OBJECT_ID": "2025-301N", "EPOCH": "2025-12-27T11:20:00.996864", "MEAN_MOTION": 15.36600659, "ECCENTRICITY": 0.0002098, "INCLINATION": 51.8749, "RA_OF_ASC_NODE": 53.9872, "ARG_OF_PERICENTER": 75.9484, "MEAN_ANOMALY": 284.1735, "EPHEMERIS_TYPE": 0, "CLASSIFICATION_TYPE": "U", "NORAD_CAT_ID": 67145, "ELEMENT_SET_NO": 999, "REV_AT_EPOCH": 274, "BSTAR": 0.00078769, "MEAN_MOTION_DOT": 0.00028304, "MEAN_MOTION_DDOT": 0}, "tle": {"line1": "1 67145U 25301N   25361.47223376  .00028304  00000+0  78769-3 0  9991", "line2": "2 67145  51.8749  53.9872 0002098  75.9484 284.1735 15.36600659  2743"}}, "geometry": {"type": "Point", "coordinates": [-75.88460915143506, -44.93820058571692]}}, {"type": "Feature", "properties": {"norad_id": 67146, "name": "KUIPER-00210", "group": "last-30-days", "lat": 27.386766143117917, "lon": -151.29245430344398, "alt_km": 452.74094779889947, "timestamp": "2025-12-27T18:38:02.207869+00:00", "meta": {"OBJECT_NAME": "KUIPER-00210", "OBJECT_ID": "2025-301P", "EPOCH": "2025-12-27T10:11:31.921728", "MEAN_MOTION": 15.34232622, "ECCENTRICITY": 0.0010506, "INCLINATION": 51.8608, "RA_OF_ASC_NODE": 54.4223, "ARG_OF_PERICENTER": 153.8657, "MEAN_ANOMALY": 206.286, "EPHEMERIS_TYPE": 0, "CLASSIFICATION_TYPE": "U", "NORAD_CAT_ID": 67146, "ELEMENT_SET_NO": 999, "REV_AT_EPOCH": 279, "BSTAR": 0.00067646, "MEAN_MOTION_DOT": 0.0002248, "MEAN_MOTION_DDOT": 0}, "tle": {"line1": "1 67146U 25301P   25361.42467502  .00022480  00000+0  67646-3 0  9999", "line2": "2 67146  51.8608  54.4223 0010506 153.8657 206.2860 15.34232622  2793"}}, "geometry": {"type": "Point", "coordinates": [-151.29245430344398, 27.386766143117917]}}, {"type": "Feature", "properties": {"norad_id": 67147, "name": "KUIPER-00221", "group": "last-30-days", "lat": -22.929359562540053, "lon": -107.99831100434365, "alt_km": 461.8784555529937, "timestamp": "2025-12-27T18:38:02.207879+00:00", "meta": {"OBJECT_NAME": "KUIPER-00221", "OBJECT_ID": "2025-301Q", "EPOCH": "2025-12-27T09:55:01.121088", "MEAN_MOTION": 15.35783545, "ECCENTRICITY": 0.0005058, "INCLINATION": 51.8725, "RA_OF_ASC_NODE": 54.3489, "ARG_OF_PERICENTER": 116.0353, "MEAN_ANOMALY": 244.1154, "EPHEMERIS_TYPE": 0, "CLASSIFICATION_TYPE": "U", "NORAD_CAT_ID": 67147, "ELEMENT_SET_NO": 999, "REV_AT_EPOCH": 262, "BSTAR": 0.00051447, "MEAN_MOTION_DOT": 0.00017848, "MEAN_MOTION_DDOT": 0}, "tle": {"line1": "1 67147U 25301Q   25361.41320742  .00017848  00000+0  51447-3 0  9997", "line2": "2 67147  51.8725  54.3489 0005058 116.0353 244.1154 15.35783545  2622"}}, "geometry": {"type": "Point", "coordinates": [-107.99831100434365, -22.929359562540053]}}, {"type": "Feature", "properties": {"norad_id": 67148, "name": "KUIPER-00232", "group": "last-30-days", "lat": -48.0504824486708, "lon": -66.59134438159737, "alt_km": 461.271804386387, "timestamp": "2025-12-27T18:38:02.207893+00:00", "meta": {"OBJECT_NAME": "KUIPER-00232", "OBJECT_ID": "2025-301R", "EPOCH": "2025-12-27T11:18:12.283200", "MEAN_MOTION": 15.36763322, "ECCENTRICITY": 0.0001662, "INCLINATION": 51.8748, "RA_OF_ASC_NODE": 53.9834, "ARG_OF_PERICENTER": 54.554, "MEAN_ANOMALY": 305.5602, "EPHEMERIS_TYPE": 0, "CLASSIFICATION_TYPE": "U", "NORAD_CAT_ID": 67148, "ELEMENT_SET_NO": 999, "REV_AT_EPOCH": 263, "BSTAR": 0.00084193, "MEAN_MOTION_DOT": 0.00030449, "MEAN_MOTION_DDOT": 0}, "tle": {"line1": "1 67148U 25301R   25361.47097550  .00030449  00000+0  84193-3 0  9998", "line2": "2 67148  51.8748  53.9834 0001662  54.5540 305.5602 15.36763322  2631"}}, "geometry": {"type": "Point", "coordinates": [-66.59134438159737, -48.0504824486708]}}, {"type": "Feature", "properties": {"norad_id": 67149, "name": "KUIPER-00241", "group": "last-30-days", "lat": -38.02631831003737, "lon": -89.56231594885799, "alt_km": 462.2944619760174, "timestamp": "2025-12-27T18:38:02.207905+00:00", "meta": {"OBJECT_NAME": "KUIPER-00241", "OBJECT_ID": "2025-301S", "EPOCH": "2025-12-27T09:49:29.612064", "MEAN_MOTION": 15.36314548, "ECCENTRICITY": 0.0003, "INCLINATION": 51.875, "RA_OF_ASC_NODE": 54.3186, "ARG_OF_PERICENTER": 103.9111, "MEAN_ANOMALY": 256.2209, "EPHEMERIS_TYPE": 0, "CLASSIFICATION_TYPE": "U", "NORAD_CAT_ID": 67149, "ELEMENT_SET_NO": 999, "REV_AT_EPOCH": 295, "BSTAR": 0.0010765, "MEAN_MOTION_DOT": 0.00038521, "MEAN_MOTION_DDOT": 0}, "tle": {"line1": "1 67149U 25301S   25361.40937051  .00038521  00000+0  10765-2 0  9993", "line2": "2 67149  51.8750  54.3186 0003000 103.9111 256.2209 15.36314548  2953"}}, "geometry": {"type": "Point", "coordinates": [-89.56231594885799, -38.02631831003737]}}, {"type": "Feature", "properties": {"norad_id": 67150, "name": "KUIPER-00245", "group": "last-30-days", "lat": -20.064113470089428, "lon": -110.72722329237064, "alt_km": 461.16521703409944, "timestamp": "2025-12-27T18:38:02.207915+00:00", "meta": {"OBJECT_NAME": "KUIPER-00245", "OBJECT_ID": "2025-301T", "EPOCH": "2025-12-27T09:55:59.009088", "MEAN_MOTION": 15.35689589, "ECCENTRICITY": 0.0005051, "INCLINATION": 51.8732, "RA_OF_ASC_NODE": 54.3519, "ARG_OF_PERICENTER": 124.7522, "MEAN_ANOMALY": 235.394, "EPHEMERIS_TYPE": 0, "CLASSIFICATION_TYPE": "U", "NORAD_CAT_ID": 67150, "ELEMENT_SET_NO": 999, "REV_AT_EPOCH": 262, "BSTAR": 0.00052672, "MEAN_MOTION_DOT": 0.00018228, "MEAN_MOTION_DDOT": 0}, "tle": {"line1": "1 67150U 25301T   25361.41387742  .00018228  00000+0  52672-3 0  9998", "line2": "2 67150  51.8732  54.3519 0005051 124.7522 235.3940 15.35689589  2623"}}, "geometry": {"type": "Point", "coordinates": [-110.72722329237064, -20.064113470089428]}}, {"type": "Feature", "properties": {"norad_id": 67151, "name": "KUIPER-00246", "group": "last-30-days", "lat": -29.740163526662684, "lon": -100.76558887553199, "alt_km": 462.11801929802186, "timestamp": "2025-12-27T18:38:02.207925+00:00", "meta": {"OBJECT_NAME": "KUIPER-00246", "OBJECT_ID": "2025-301U", "EPOCH": "2025-12-27T09:52:37.558848", "MEAN_MOTION": 15.35972019, "ECCENTRICITY": 0.0004015, "INCLINATION": 51.8742, "RA_OF_ASC_NODE": 54.3351, "ARG_OF_PERICENTER": 118.1199, "MEAN_ANOMALY": 242.0193, "EPHEMERIS_TYPE": 0, "CLASSIFICATION_TYPE": "U", "NORAD_CAT_ID": 67151, "ELEMENT_SET_NO": 999, "REV_AT_EPOCH": 264, "BSTAR": 0.00070331, "MEAN_MOTION_DOT": 0.00024712, "MEAN_MOTION_DDOT": 0}, "tle": {"line1": "1 67151U 25301U   25361.41154582  .00024712  00000+0  70331-3 0  9990", "line2": "2 67151  51.8742  54.3351 0004015 118.1199 242.0193 15.35972019  2645"}}, "geometry": {"type": "Point", "coordinates": [-100.76558887553199, -29.740163526662684]}}, {"type": "Feature", "properties": {"norad_id": 67152, "name": "KUIPER-00247", "group": "last-30-days", "lat": 32.60986861663997, "lon": -157.4309630456064, "alt_km": 452.4261646956347, "timestamp": "2025-12-27T18:38:02.207937+00:00", "meta": {"OBJECT_NAME": "KUIPER-00247", "OBJECT_ID": "2025-301V", "EPOCH": "2025-12-27T10:13:24.352320", "MEAN_MOTION": 15.34049432, "ECCENTRICITY": 0.0011129, "INCLINATION": 51.8635, "RA_OF_ASC_NODE": 54.432, "ARG_OF_PERICENTER": 157.2165, "MEAN_ANOMALY": 202.9316, "EPHEMERIS_TYPE": 0, "CLASSIFICATION_TYPE": "U", "NORAD_CAT_ID": 67152, "ELEMENT_SET_NO": 999, "REV_AT_EPOCH": 262, "BSTAR": 0.00069435, "MEAN_MOTION_DOT": 0.00022956, "MEAN_MOTION_DDOT": 0}, "tle": {"line1": "1 67152U 25301V   25361.42597630  .00022956  00000+0  69435-3 0  9998", "line2": "2 67152  51.8635  54.4320 0011129 157.2165 202.9316 15.34049432  2628"}}, "geometry": {"type": "Point", "coordinates": [-157.4309630456064, 32.60986861663997]}}]}